{"fetched_at":"2026-07-07T07:58:27.956Z","source":"https://celestrak.org/NORAD/elements/gp.php?NAME=EROS&FORMAT=JSON","constellation":"eros","records":[{"OBJECT_NAME":"EROS C3","OBJECT_ID":"2022-179A","EPOCH":"2026-07-06T18:52:26.624928","CLASSIFICATION_TYPE":"U","MEAN_MOTION":15.10983965,"ECCENTRICITY":0.0006038,"INCLINATION":139.3346,"RA_OF_ASC_NODE":116.8619,"ARG_OF_PERICENTER":114.7396,"MEAN_ANOMALY":245.404,"EPHEMERIS_TYPE":0,"NORAD_CAT_ID":54880,"ELEMENT_SET_NO":999,"REV_AT_EPOCH":19529,"BSTAR":0.00019861,"MEAN_MOTION_DOT":0.00003621,"MEAN_MOTION_DDOT":0}]}
