EROS C3                 
1 54880U 22179A   26187.78641927  .00003621  00000+0  19861-3 0  9993
2 54880 139.3346 116.8619 0006038 114.7396 245.4040 15.10983965195298
